[{"OBJECT_NAME":"STARLINK-36484","OBJECT_ID":"2026-005A","EPOCH":"2026-03-09T22:00:01.999584","MEAN_MOTION":15.28559164,"ECCENTRICITY":0.00020575,"INCLINATION":43.0009,"RA_OF_ASC_NODE":236.4215,"ARG_OF_PERICENTER":285.389,"MEAN_ANOMALY":107.322,"EPHEMERIS_TYPE":0,"CLASSIFICATION_TYPE":"U","NORAD_CAT_ID":67404,"ELEMENT_SET_NO":999,"REV_AT_EPOCH":575,"BSTAR":-0.051392169,"MEAN_MOTION_DOT":-0.01328663,"MEAN_MOTION_DDOT":0},{"OBJECT_NAME":"OBJECT F","OBJECT_ID":"2026-027F","EPOCH":"2026-03-09T19:49:10.682112","MEAN_MOTION":15.18180546,"ECCENTRICITY":0.00096725,"INCLINATION":97.4922,"RA_OF_ASC_NODE":197.863,"ARG_OF_PERICENTER":203.5802,"MEAN_ANOMALY":156.499,"EPHEMERIS_TYPE":0,"CLASSIFICATION_TYPE":"U","NORAD_CAT_ID":67751,"ELEMENT_SET_NO":999,"REV_AT_EPOCH":388,"BSTAR":0.00022390931,"MEAN_MOTION_DOT":4.513e-5,"MEAN_MOTION_DDOT":0}]
